[{"OBJECT_NAME":"JILIN-1 GAOFEN 3A","OBJECT_ID":"2019-032C","EPOCH":"2026-03-09T17:53:24.364896","MEAN_MOTION":15.3027131,"ECCENTRICITY":0.00026181,"INCLINATION":44.9746,"RA_OF_ASC_NODE":183.2861,"ARG_OF_PERICENTER":111.29,"MEAN_ANOMALY":248.8263,"EPHEMERIS_TYPE":0,"CLASSIFICATION_TYPE":"U","NORAD_CAT_ID":44312,"ELEMENT_SET_NO":999,"REV_AT_EPOCH":37259,"BSTAR":0.00055381133,"MEAN_MOTION_DOT":0.00016264,"MEAN_MOTION_DDOT":0},{"OBJECT_NAME":"STARLINK-1460","OBJECT_ID":"2020-035V","EPOCH":"2026-03-10T00:00:02.999808","MEAN_MOTION":15.29345467,"ECCENTRICITY":0.00012811,"INCLINATION":53.1565,"RA_OF_ASC_NODE":63.4675,"ARG_OF_PERICENTER":91.2928,"MEAN_ANOMALY":339.6328,"EPHEMERIS_TYPE":0,"CLASSIFICATION_TYPE":"U","NORAD_CAT_ID":45676,"ELEMENT_SET_NO":999,"REV_AT_EPOCH":559,"BSTAR":0.0010490581,"MEAN_MOTION_DOT":0.00030028,"MEAN_MOTION_DDOT":0}]
